[{"OBJECT_NAME":"SKYSAT-C6","OBJECT_ID":"2017-068F","EPOCH":"2026-03-09T21:33:49.392576","MEAN_MOTION":15.32504544,"ECCENTRICITY":0.00036369,"INCLINATION":97.44,"RA_OF_ASC_NODE":205.7173,"ARG_OF_PERICENTER":127.5085,"MEAN_ANOMALY":232.6488,"EPHEMERIS_TYPE":0,"CLASSIFICATION_TYPE":"U","NORAD_CAT_ID":42992,"ELEMENT_SET_NO":999,"REV_AT_EPOCH":46710,"BSTAR":0.00039699196,"MEAN_MOTION_DOT":0.0001239,"MEAN_MOTION_DDOT":0},{"OBJECT_NAME":"STARLINK-31825","OBJECT_ID":"2024-112U","EPOCH":"2026-03-09T07:08:09.313728","MEAN_MOTION":15.30191486,"ECCENTRICITY":0.00016374,"INCLINATION":53.1604,"RA_OF_ASC_NODE":80.0226,"ARG_OF_PERICENTER":79.6481,"MEAN_ANOMALY":280.4704,"EPHEMERIS_TYPE":0,"CLASSIFICATION_TYPE":"U","NORAD_CAT_ID":60056,"ELEMENT_SET_NO":999,"REV_AT_EPOCH":9853,"BSTAR":-5.985764e-6,"MEAN_MOTION_DOT":-5.37e-6,"MEAN_MOTION_DDOT":0}]
